ONEWEB-0136             
1 47282U 20100AA  24267.49040553  .00000333  00000+0  89071-3 0  9993
2 47282  87.8867 116.4548 0002140  87.5177 272.6197 13.12443752181804
ONEWEB-0137             
1 47283U 20100AB  24267.60067678 -.00000236  00000+0 -69130-3 0  9992
2 47283  87.8859 116.4529 0001699  77.2000 282.9318 13.12439269181722
ONEWEB-0138             
1 47284U 20100AC  24267.50337924  .00000389  00000+0  10464-2 0  9998
2 47284  87.8861 116.4846 0001839  83.4138 276.7199 13.12441004181790
ONEWEB-0139             
1 47285U 20100AD  24267.54243885 -.00000398  00000+0 -11419-2 0  9998
2 47285  87.8868 116.4517 0001721  81.3528 278.7796 13.12443511181872
ONEWEB-0140             
1 47286U 20100AE  24267.49689239  .00000432  00000+0  11649-2 0  9992
2 47286  87.8861 116.4617 0001802  85.0212 275.1122 13.12441576181837
ONEWEB-0141             
1 47287U 20100AF  24267.84710728 -.00000360  00000+0 -10361-2 0  9992
2 47287  87.8862 116.4047 0001601  76.1756 283.9550 13.12442185181869
ONEWEB-0142             
1 47288U 20100AG  24267.51066980  .00000277  00000+0  73472-3 0  9999
2 47288  87.8863 116.4528 0001839  75.9344 284.1989 13.12444341181818
ONEWEB-0143             
1 47289U 20100AH  24267.54066501 -.00000420  00000+0 -12040-2 0  9997
2 47289  87.8859 116.4688 0001625  83.9001 276.2312 13.12444643181797
