<?xml version="1.0" encoding="UTF-8"?>
<ndm xmlns:xsi="http://www.w3.org/2001/XMLSchema-instance" xsi:noNamespaceSchemaLocation="https://sanaregistry.org/r/ndmxml_unqualified/ndmxml-2.0.0-master-2.0.xsd">
<omm id="CCSDS_OMM_VERS" version="2.0">
<header><CREATION_DATE/><ORIGINATOR/></header><body><segment><metadata><OBJECT_NAME>ONEWEB-0136</OBJECT_NAME><OBJECT_ID>2020-100AA</OBJECT_ID><CENTER_NAME>EARTH</CENTER_NAME><REF_FRAME>TEME</REF_FRAME><TIME_SYSTEM>UTC</TIME_SYSTEM><MEAN_ELEMENT_THEORY>SGP4</MEAN_ELEMENT_THEORY></metadata><data><meanElements><EPOCH>2024-09-23T11:46:11.037792</EPOCH><MEAN_MOTION>13.12443752</MEAN_MOTION><ECCENTRICITY>.000214</ECCENTRICITY><INCLINATION>87.8867</INCLINATION><RA_OF_ASC_NODE>116.4548</RA_OF_ASC_NODE><ARG_OF_PERICENTER>87.5177</ARG_OF_PERICENTER><MEAN_ANOMALY>272.6197</MEAN_ANOMALY></meanElements><tleParameters><EPHEMERIS_TYPE>0</EPHEMERIS_TYPE><CLASSIFICATION_TYPE>U</CLASSIFICATION_TYPE><NORAD_CAT_ID>47282</NORAD_CAT_ID><ELEMENT_SET_NO>999</ELEMENT_SET_NO><REV_AT_EPOCH>18180</REV_AT_EPOCH><BSTAR>.89071E-3</BSTAR><MEAN_MOTION_DOT>.333E-5</MEAN_MOTION_DOT><MEAN_MOTION_DDOT>0</MEAN_MOTION_DDOT></tleParameters></data></segment></body></omm>
<omm id="CCSDS_OMM_VERS" version="2.0">
<header><CREATION_DATE/><ORIGINATOR/></header><body><segment><metadata><OBJECT_NAME>ONEWEB-0137</OBJECT_NAME><OBJECT_ID>2020-100AB</OBJECT_ID><CENTER_NAME>EARTH</CENTER_NAME><REF_FRAME>TEME</REF_FRAME><TIME_SYSTEM>UTC</TIME_SYSTEM><MEAN_ELEMENT_THEORY>SGP4</MEAN_ELEMENT_THEORY></metadata><data><meanElements><EPOCH>2024-09-23T14:24:58.473792</EPOCH><MEAN_MOTION>13.12439269</MEAN_MOTION><ECCENTRICITY>.0001699</ECCENTRICITY><INCLINATION>87.8859</INCLINATION><RA_OF_ASC_NODE>116.4529</RA_OF_ASC_NODE><ARG_OF_PERICENTER>77.2000</ARG_OF_PERICENTER><MEAN_ANOMALY>282.9318</MEAN_ANOMALY></meanElements><tleParameters><EPHEMERIS_TYPE>0</EPHEMERIS_TYPE><CLASSIFICATION_TYPE>U</CLASSIFICATION_TYPE><NORAD_CAT_ID>47283</NORAD_CAT_ID><ELEMENT_SET_NO>999</ELEMENT_SET_NO><REV_AT_EPOCH>18172</REV_AT_EPOCH><BSTAR>-.6913E-3</BSTAR><MEAN_MOTION_DOT>-.236E-5</MEAN_MOTION_DOT><MEAN_MOTION_DDOT>0</MEAN_MOTION_DDOT></tleParameters></data></segment></body></omm>
<omm id="CCSDS_OMM_VERS" version="2.0">
<header><CREATION_DATE/><ORIGINATOR/></header><body><segment><metadata><OBJECT_NAME>ONEWEB-0138</OBJECT_NAME><OBJECT_ID>2020-100AC</OBJECT_ID><CENTER_NAME>EARTH</CENTER_NAME><REF_FRAME>TEME</REF_FRAME><TIME_SYSTEM>UTC</TIME_SYSTEM><MEAN_ELEMENT_THEORY>SGP4</MEAN_ELEMENT_THEORY></metadata><data><meanElements><EPOCH>2024-09-23T12:04:51.966336</EPOCH><MEAN_MOTION>13.12441004</MEAN_MOTION><ECCENTRICITY>.0001839</ECCENTRICITY><INCLINATION>87.8861</INCLINATION><RA_OF_ASC_NODE>116.4846</RA_OF_ASC_NODE><ARG_OF_PERICENTER>83.4138</ARG_OF_PERICENTER><MEAN_ANOMALY>276.7199</MEAN_ANOMALY></meanElements><tleParameters><EPHEMERIS_TYPE>0</EPHEMERIS_TYPE><CLASSIFICATION_TYPE>U</CLASSIFICATION_TYPE><NORAD_CAT_ID>47284</NORAD_CAT_ID><ELEMENT_SET_NO>999</ELEMENT_SET_NO><REV_AT_EPOCH>18179</REV_AT_EPOCH><BSTAR>.10464E-2</BSTAR><MEAN_MOTION_DOT>.389E-5</MEAN_MOTION_DOT><MEAN_MOTION_DDOT>0</MEAN_MOTION_DDOT></tleParameters></data></segment></body></omm>
<omm id="CCSDS_OMM_VERS" version="2.0">
<header><CREATION_DATE/><ORIGINATOR/></header><body><segment><metadata><OBJECT_NAME>ONEWEB-0139</OBJECT_NAME><OBJECT_ID>2020-100AD</OBJECT_ID><CENTER_NAME>EARTH</CENTER_NAME><REF_FRAME>TEME</REF_FRAME><TIME_SYSTEM>UTC</TIME_SYSTEM><MEAN_ELEMENT_THEORY>SGP4</MEAN_ELEMENT_THEORY></metadata><data><meanElements><EPOCH>2024-09-23T13:01:06.716640</EPOCH><MEAN_MOTION>13.12443511</MEAN_MOTION><ECCENTRICITY>.0001721</ECCENTRICITY><INCLINATION>87.8868</INCLINATION><RA_OF_ASC_NODE>116.4517</RA_OF_ASC_NODE><ARG_OF_PERICENTER>81.3528</ARG_OF_PERICENTER><MEAN_ANOMALY>278.7796</MEAN_ANOMALY></meanElements><tleParameters><EPHEMERIS_TYPE>0</EPHEMERIS_TYPE><CLASSIFICATION_TYPE>U</CLASSIFICATION_TYPE><NORAD_CAT_ID>47285</NORAD_CAT_ID><ELEMENT_SET_NO>999</ELEMENT_SET_NO><REV_AT_EPOCH>18187</REV_AT_EPOCH><BSTAR>-.11419E-2</BSTAR><MEAN_MOTION_DOT>-.398E-5</MEAN_MOTION_DOT><MEAN_MOTION_DDOT>0</MEAN_MOTION_DDOT></tleParameters></data></segment></body></omm>
<omm id="CCSDS_OMM_VERS" version="2.0">
<header><CREATION_DATE/><ORIGINATOR/></header><body><segment><metadata><OBJECT_NAME>ONEWEB-0140</OBJECT_NAME><OBJECT_ID>2020-100AE</OBJECT_ID><CENTER_NAME>EARTH</CENTER_NAME><REF_FRAME>TEME</REF_FRAME><TIME_SYSTEM>UTC</TIME_SYSTEM><MEAN_ELEMENT_THEORY>SGP4</MEAN_ELEMENT_THEORY></metadata><data><meanElements><EPOCH>2024-09-23T11:55:31.502496</EPOCH><MEAN_MOTION>13.12441576</MEAN_MOTION><ECCENTRICITY>.0001802</ECCENTRICITY><INCLINATION>87.8861</INCLINATION><RA_OF_ASC_NODE>116.4617</RA_OF_ASC_NODE><ARG_OF_PERICENTER>85.0212</ARG_OF_PERICENTER><MEAN_ANOMALY>275.1122</MEAN_ANOMALY></meanElements><tleParameters><EPHEMERIS_TYPE>0</EPHEMERIS_TYPE><CLASSIFICATION_TYPE>U</CLASSIFICATION_TYPE><NORAD_CAT_ID>47286</NORAD_CAT_ID><ELEMENT_SET_NO>999</ELEMENT_SET_NO><REV_AT_EPOCH>18183</REV_AT_EPOCH><BSTAR>.11649E-2</BSTAR><MEAN_MOTION_DOT>.432E-5</MEAN_MOTION_DOT><MEAN_MOTION_DDOT>0</MEAN_MOTION_DDOT></tleParameters></data></segment></body></omm>
<omm id="CCSDS_OMM_VERS" version="2.0">
<header><CREATION_DATE/><ORIGINATOR/></header><body><segment><metadata><OBJECT_NAME>ONEWEB-0141</OBJECT_NAME><OBJECT_ID>2020-100AF</OBJECT_ID><CENTER_NAME>EARTH</CENTER_NAME><REF_FRAME>TEME</REF_FRAME><TIME_SYSTEM>UTC</TIME_SYSTEM><MEAN_ELEMENT_THEORY>SGP4</MEAN_ELEMENT_THEORY></metadata><data><meanElements><EPOCH>2024-09-23T20:19:50.068992</EPOCH><MEAN_MOTION>13.12442185</MEAN_MOTION><ECCENTRICITY>.0001601</ECCENTRICITY><INCLINATION>87.8862</INCLINATION><RA_OF_ASC_NODE>116.4047</RA_OF_ASC_NODE><ARG_OF_PERICENTER>76.1756</ARG_OF_PERICENTER><MEAN_ANOMALY>283.9550</MEAN_ANOMALY></meanElements><tleParameters><EPHEMERIS_TYPE>0</EPHEMERIS_TYPE><CLASSIFICATION_TYPE>U</CLASSIFICATION_TYPE><NORAD_CAT_ID>47287</NORAD_CAT_ID><ELEMENT_SET_NO>999</ELEMENT_SET_NO><REV_AT_EPOCH>18186</REV_AT_EPOCH><BSTAR>-.10361E-2</BSTAR><MEAN_MOTION_DOT>-.36E-5</MEAN_MOTION_DOT><MEAN_MOTION_DDOT>0</MEAN_MOTION_DDOT></tleParameters></data></segment></body></omm>
<omm id="CCSDS_OMM_VERS" version="2.0">
<header><CREATION_DATE/><ORIGINATOR/></header><body><segment><metadata><OBJECT_NAME>ONEWEB-0142</OBJECT_NAME><OBJECT_ID>2020-100AG</OBJECT_ID><CENTER_NAME>EARTH</CENTER_NAME><REF_FRAME>TEME</REF_FRAME><TIME_SYSTEM>UTC</TIME_SYSTEM><MEAN_ELEMENT_THEORY>SGP4</MEAN_ELEMENT_THEORY></metadata><data><meanElements><EPOCH>2024-09-23T12:15:21.870720</EPOCH><MEAN_MOTION>13.12444341</MEAN_MOTION><ECCENTRICITY>.0001839</ECCENTRICITY><INCLINATION>87.8863</INCLINATION><RA_OF_ASC_NODE>116.4528</RA_OF_ASC_NODE><ARG_OF_PERICENTER>75.9344</ARG_OF_PERICENTER><MEAN_ANOMALY>284.1989</MEAN_ANOMALY></meanElements><tleParameters><EPHEMERIS_TYPE>0</EPHEMERIS_TYPE><CLASSIFICATION_TYPE>U</CLASSIFICATION_TYPE><NORAD_CAT_ID>47288</NORAD_CAT_ID><ELEMENT_SET_NO>999</ELEMENT_SET_NO><REV_AT_EPOCH>18181</REV_AT_EPOCH><BSTAR>.73472E-3</BSTAR><MEAN_MOTION_DOT>.277E-5</MEAN_MOTION_DOT><MEAN_MOTION_DDOT>0</MEAN_MOTION_DDOT></tleParameters></data></segment></body></omm>
<omm id="CCSDS_OMM_VERS" version="2.0">
<header><CREATION_DATE/><ORIGINATOR/></header><body><segment><metadata><OBJECT_NAME>ONEWEB-0143</OBJECT_NAME><OBJECT_ID>2020-100AH</OBJECT_ID><CENTER_NAME>EARTH</CENTER_NAME><REF_FRAME>TEME</REF_FRAME><TIME_SYSTEM>UTC</TIME_SYSTEM><MEAN_ELEMENT_THEORY>SGP4</MEAN_ELEMENT_THEORY></metadata><data><meanElements><EPOCH>2024-09-23T12:58:33.456864</EPOCH><MEAN_MOTION>13.12444643</MEAN_MOTION><ECCENTRICITY>.0001625</ECCENTRICITY><INCLINATION>87.8859</INCLINATION><RA_OF_ASC_NODE>116.4688</RA_OF_ASC_NODE><ARG_OF_PERICENTER>83.9001</ARG_OF_PERICENTER><MEAN_ANOMALY>276.2312</MEAN_ANOMALY></meanElements><tleParameters><EPHEMERIS_TYPE>0</EPHEMERIS_TYPE><CLASSIFICATION_TYPE>U</CLASSIFICATION_TYPE><NORAD_CAT_ID>47289</NORAD_CAT_ID><ELEMENT_SET_NO>999</ELEMENT_SET_NO><REV_AT_EPOCH>18179</REV_AT_EPOCH><BSTAR>-.1204E-2</BSTAR><MEAN_MOTION_DOT>-.42E-5</MEAN_MOTION_DOT><MEAN_MOTION_DDOT>0</MEAN_MOTION_DDOT></tleParameters></data></segment></body></omm>

</ndm>
